RADUGA 1                
1 08513U 75123A   25067.86778722 -.00000078  00000+0  00000+0 0  9996
2 08513   4.0072 274.1641 0004841 265.1285  11.5635  1.00295778190148
RADUGA 2                
1 09416U 76092A   25068.05044750 -.00000216  00000+0  00000+0 0  9998
2 09416   4.6795 276.6303 0029215  26.4950 328.3974  1.00273772124670
RADUGA 3                
1 10159U 77071A   25068.06033749 -.00000242  00000+0  00000+0 0  9998
2 10159   5.3125 279.8595 0008089 284.7194  75.3291  1.00195814172397
RADUGA 4                
1 10987U 78073A   25067.76252704  .00000104  00000+0  00000+0 0  9996
2 10987   5.9700 284.2193 0010678  25.4930 178.4556  1.00321179114930
RADUGA 5                
1 11343U 79035A   25068.12847428 -.00000087  00000+0  00000+0 0  9997
2 11343   6.4591 287.5568 0003680 206.1641 153.0808  1.00247277124661
RADUGA 6                
1 11708U 80016A   25067.79198895 -.00000221  00000+0  00000+0 0  9992
2 11708   6.8620 291.2700 0001454 304.9225 301.1362  1.00340160117494
RADUGA 7                
1 12003U 80081A   25067.79487646  .00000095  00000+0  00000+0 0  9996
2 12003   7.0759 293.5930 0010229 304.8116  46.3298  1.00309825118756
RADUGA 8                
1 12351U 81027A   25068.10878073 -.00000317  00000+0  00000+0 0  9995
2 12351   7.4161 293.9796 0079602 259.8721 108.3003  1.00411508117864
RADUGA 9                
1 12618U 81069A   25067.72871615 -.00000051  00000+0  00000+0 0  9994
2 12618   7.6890 297.6312 0001384 158.4272  40.2619  1.00354788 42672
RADUGA 10               
1 12897U 81102A   25067.80806660 -.00000176  00000+0  00000+0 0  9996
2 12897   7.7930 298.8037 0003282 230.7152  10.6921  1.00255258112671
RADUGA 11               
1 13669U 82113A   25064.30114441 -.00000047  00000+0  00000+0 0  9995
2 13669  10.1339 314.3735 0040596 282.2854 275.4738  0.97708008116952
RADUGA 12               
1 13974U 83028A   25067.80113887 -.00000144  00000+0  00000+0 0  9999
2 13974   9.1607 309.6557 0001272  31.9061 191.9245  1.00294016164719
RADUGA 13               
1 14307U 83088A   25067.71989144 -.00000026  00000+0  00000+0 0  9992
2 14307  10.4274 315.7708 0017080  56.9209 108.6425  0.98172834114377
RADUGA 14               
1 14725U 84016A   25067.80629963 -.00000125  00000+0  00000+0 0  9998
2 14725   9.4739 313.9104 0002203 151.3290  69.2609  1.00245622113438
RADUGA 15               
1 15057U 84063A   25067.69697442 -.00000295  00000+0  00000+0 0  9991
2 15057   9.6254 314.9159 0003147 201.9757 354.3837  1.00370960136430
RADUGA 16               
1 15946U 85070A   25067.24700470 -.00000274  00000+0  00000+0 0  9991
2 15946  10.2295 319.8407 0001474 282.2608 302.3520  1.00182479117558
RADUGA 17               
1 16250U 85107A   25067.34823817 -.00000164  00000+0  00000+0 0  9991
2 16250  10.3981 321.3573 0012639 223.0496  14.3993  1.00129287147000
RADUGA 18               
1 16497U 86007A   25067.83417149 -.00000044  00000+0  00000+0 0  9992
2 16497  11.2737 324.1895 0071394 189.9631 345.5759  0.98812826141269
RADUGA 19               
1 17046U 86082A   25067.23639632 -.00000011  00000+0  00000+0 0  9997
2 17046  11.8420 328.3307 0010923 180.5163 359.7984  0.98458922138364
RADUGA 20               
1 17611U 87028A   25067.33655997 -.00000102  00000+0  00000+0 0  9990
2 17611  13.9448 331.5827 0028264 162.2349  18.2473  0.95960878133841
RADUGA 21               
1 18631U 87100A   25063.36086656  .00000080  00000+0  00000+0 0  9997
2 18631  11.9783 328.6125 0000943 205.3452 340.7936  1.00205372136376
RADUGA 22               
1 19596U 88095A   25067.49539162 -.00000383  00000+0  00000+0 0  9992
2 19596  12.1311 333.2690 0005437 184.5025 304.7764  1.00342624116989
RADUGA 23               
1 19928U 89030A   25067.86197788  .00000114  00000+0  00000+0 0  9997
2 19928  12.3468 335.1176 0019900 195.2193 347.1077  1.00328519130170
RADUGA-1 1              
1 20083U 89048A   25067.45475813 -.00000001  00000+0  00000+0 0  9999
2 20083  13.2104 338.3284 0019601 141.2462 105.6216  0.98707155126679
RADUGA 24               
1 20367U 89098A   25067.84640546  .00000096  00000+0  00000+0 0  9992
2 20367  13.0066 337.1182 0002277 259.4371 281.8805  1.00246269128306
RADUGA 25               
1 20499U 90016A   25067.23720922 -.00000298  00000+0  00000+0 0  9995
2 20499  12.8103 337.9333 0003989 203.0419  24.6018  1.00324447128232
RADUGA 26               
1 21016U 90112A   25067.74141916 -.00000244  00000+0  00000+0 0  9995
2 21016  13.2548 341.1866 0004459 115.6185  64.6059  1.00312588125593
RADUGA-1 2              
1 21038U 90116A   25065.77175109  .00000030  00000+0  00000+0 0  9997
2 21038  13.2978 341.2472 0005300 133.4328  25.2784  1.00314516 42657
RADUGA 27               
1 21132U 91014A   25066.90461640  .00000102  00000+0  00000+0 0  9994
2 21132  13.7754 340.3882 0000232 115.6335  60.5862  1.00229848124623
RADUGA 28               
1 21821U 91087A   25067.71069095 -.00000297  00000+0  00000+0 0  9993
2 21821  13.7098 344.4263 0004918 169.6236   5.5350  1.00196980121652
RADUGA 29               
1 22557U 93013A   25064.80660388  .00000040  00000+0  00000+0 0  9995
2 22557  14.0958 348.5951 0004755 167.4634 309.3704  1.00257682116989
RADUGA 30               
1 22836U 93062A   25067.86555867 -.00000065  00000+0  00000+0 0  9991
2 22836  14.2274 350.5911 0003903 307.1544 249.8811  1.00269585 41336
RADUGA-1 3              
1 22981U 94008A   25066.84725351 -.00000142  00000+0  00000+0 0  9993
2 22981  14.3555 351.7024 0001165 188.6885   9.1593  1.00215080113803
RADUGA 31               
1 23010U 94012A   25067.82822516 -.00000187  00000+0  00000+0 0  9991
2 23010  14.3254 351.7078 0002484 142.1488  51.6094  1.00338982113682
RADUGA 32               
1 23448U 94087A   25066.84083073 -.00000075  00000+0  00000+0 0  9992
2 23448  14.4316 354.4689 0007404 247.4121 296.9297  1.00268669128202
RADUGA-1 4              
1 25642U 99010A   25067.82229179  .00000095  00000+0  00000+0 0  9990
2 25642  15.5135   5.4945 0006101 267.9102 232.7770  1.00320464 95285
RADUGA-1 5              
1 26477U 00049A   25067.81661447  .00000050  00000+0  00000+0 0  9999
2 26477  13.7018  11.4643 0001906  72.1382  70.5104  1.00320389 89758
RADUGA-1 6              
1 26936U 01045A   25066.93933519 -.00000061  00000+0  00000+0 0  9993
2 26936  14.1673  18.0164 0017967 198.5231 345.1253  0.97743643 84029
RADUGA-1 7              
1 28194U 04010A   25067.78167064 -.00000374  00000+0  00000+0 0  9991
2 28194  13.1366  24.4009 0004464 229.9960 319.5031  1.00306322 76754
RADUGA-1M 1             
1 32373U 07058A   25067.81555398 -.00000216  00000+0  00000+0 0  9990
2 32373   9.1322  56.1184 0002159 289.5614  50.6974  0.99396166 47768
RADUGA-1 8              
1 34264U 09010A   25067.24824284 -.00000277  00000+0  00000+0 0  9998
2 34264  11.1981  45.9609 0011021  16.2823 132.7445  0.99823015 58525
RADUGA-1M 2             
1 36358U 10002A   25068.17990742 -.00000252  00000+0  00000+0 0  9996
2 36358   2.4047  84.7487 0007889 243.4045 236.6448  0.98969111 55340
RADUGA-1M 3             
1 39375U 13062A   25067.75250155  .00000138  00000+0  00000+0 0  9999
2 39375   4.7751  78.1084 0000452 286.9921 107.4724  1.00271135 41447
